ONEWEB-0210             
1 48787U 21045W   24211.44170342  .00000106  00000+0  24648-3 0  9994
2 48787  87.9018  36.0355 0001866  60.0705 300.0610 13.15549178153890
ONEWEB-0214             
1 48788U 21045X   24211.45120994  .00000051  00000+0  10190-3 0  9990
2 48788  87.9018  36.0221 0002034  69.5805 290.5544 13.15548841153868
ONEWEB-0221             
1 48789U 21045Y   24211.07724990 -.00000103  00000+0 -30672-3 0  9992
2 48789  87.9021  36.1157 0001558  84.2977 275.8331 13.15546462153908
ONEWEB-0213             
1 48790U 21045Z   24211.44645048  .00000104  00000+0  24277-3 0  9994
2 48790  87.9020  36.0552 0001545  77.6788 282.4515 13.15549332154019
ONEWEB-0212             
1 48791U 21045AA  24211.49953824  .00000210  00000+0  52277-3 0  9993
2 48791  87.9021  36.0282 0001771  91.8409 268.2924 13.15548507155155
ONEWEB-0227             
1 48792U 21045AB  24211.49874528  .00000174  00000+0  42737-3 0  9996
2 48792  87.9020  36.0437 0001633  86.1347 273.9970 13.15548800155095
ONEWEB-0226             
1 48793U 21045AC  24211.41634931  .00000148  00000+0  36034-3 0  9995
2 48793  87.9018  36.0663 0001693  70.8205 289.3108 13.15549090153929
ONEWEB-0224             
1 48794U 21045AD  24211.45595902  .00000001  00000+0 -30264-4 0  9993
2 48794  87.9025  36.0810 0000899 120.1801 239.9418 13.15549260153856
